{
"type": "FeatureCollection",
"name": "Srikalahasti",
"crs": { "type": "name", "properties": { "name": "urn:ogc:def:crs:OGC:1.3:CRS84" } },
"features": [
{ "type": "Feature", "properties": { "GID_3": "IND.2.2.9_1", "GID_0": "IND", "COUNTRY": "India", "GID_1": "IND.2_1", "NAME_1": "Andhra Pradesh", "NL_NAME_1": "NA", "GID_2": "IND.2.2_1", "NAME_2": "Chittoor", "NL_NAME_2": "NA", "NAME_3": "Sri Kalahasti", "VARNAME_3": "NA", "NL_NAME_3": "NA", "TYPE_3": "Taluk", "ENGTYPE_3": "Taluk", "CC_3": "NA", "HASC_3": "NA" }, "geometry": { "type": "MultiPolygon", "coordinates": [ [ [ [ 79.525337219000107, 13.586261750000119 ], [ 79.522621153999978, 13.590441704000114 ], [ 79.521980286000087, 13.594349862 ], [ 79.529953002000184, 13.593521118000012 ], [ 79.536979675999987, 13.594698906000133 ], [ 79.535598754000148, 13.607000352000114 ], [ 79.531906129000049, 13.61752033200014 ], [ 79.529342651000036, 13.631851196000127 ], [ 79.537681579000093, 13.633778572000097 ], [ 79.546997071000078, 13.633790970000064 ], [ 79.553405761000079, 13.631131172999972 ], [ 79.557266235000156, 13.634940148000112 ], [ 79.552299499000071, 13.66005992800018 ], [ 79.541748047000112, 13.690119744000071 ], [ 79.540573120000147, 13.703920364000112 ], [ 79.526519776000157, 13.720748902000025 ], [ 79.514282226000148, 13.742261888000087 ], [ 79.506835937000176, 13.751819610999974 ], [ 79.484542847, 13.765001298000072 ], [ 79.468978882000044, 13.777799606000087 ], [ 79.460929870000029, 13.783520699000178 ], [ 79.455146789000139, 13.785419465000075 ], [ 79.449096681000128, 13.789569855000082 ], [ 79.442459107, 13.815720558000123 ], [ 79.438438416000167, 13.827091218000021 ], [ 79.427017211000077, 13.848471642000106 ], [ 79.424247741000102, 13.857569696000098 ], [ 79.425689697, 13.866300583000111 ], [ 79.433242798000151, 13.877711297000133 ], [ 79.439590453000164, 13.880520821000061 ], [ 79.462936402000139, 13.884922028000176 ], [ 79.466979981000122, 13.894531250000114 ], [ 79.469963074000077, 13.898522377000063 ], [ 79.491783141000099, 13.897999763000144 ], [ 79.518386840000119, 13.901969909000172 ], [ 79.531600952000133, 13.901940345000071 ], [ 79.542892456, 13.900500298000168 ], [ 79.577697754000155, 13.907120705000011 ], [ 79.585861207000164, 13.903120995000052 ], [ 79.58599090600012, 13.887888909000026 ], [ 79.584861755000077, 13.877910614000029 ], [ 79.586921692000089, 13.876340865999964 ], [ 79.597366333000139, 13.874151230000166 ], [ 79.611091614000088, 13.873080253000126 ], [ 79.614448547000109, 13.864309312000103 ], [ 79.615837097000053, 13.857971192000093 ], [ 79.613708497000118, 13.851848603 ], [ 79.609199523000086, 13.847641946000067 ], [ 79.604248046000123, 13.846041681000088 ], [ 79.600097657, 13.842450142000189 ], [ 79.604103089000148, 13.837059975000159 ], [ 79.615676879000091, 13.829869270000188 ], [ 79.623252869000055, 13.831341744000156 ], [ 79.633712769000113, 13.827430726000046 ], [ 79.644348145000038, 13.824541093000107 ], [ 79.658866882999973, 13.822719575000065 ], [ 79.660362243000066, 13.829721451000125 ], [ 79.660629273000154, 13.845859527000073 ], [ 79.663139343000182, 13.855371475000027 ], [ 79.664131165000185, 13.864899635000029 ], [ 79.661682130000145, 13.870499612 ], [ 79.660240173000091, 13.877698899000166 ], [ 79.663429259, 13.888701440000034 ], [ 79.666572571000017, 13.895959855000115 ], [ 79.67038726800007, 13.911199569000189 ], [ 79.674057007000044, 13.909151078000093 ], [ 79.681259155000191, 13.902689935000069 ], [ 79.698562623000157, 13.896400453000126 ], [ 79.71459961, 13.89358043600015 ], [ 79.719940185000041, 13.889551162000032 ], [ 79.722259521000069, 13.877409936000163 ], [ 79.718627931000185, 13.855090142000108 ], [ 79.721687317000146, 13.847290992000126 ], [ 79.733306884000115, 13.843020439000043 ], [ 79.752212525, 13.838371276000032 ], [ 79.760177613000053, 13.837540627000124 ], [ 79.76390838500015, 13.844560624 ], [ 79.765762329000097, 13.851042748000054 ], [ 79.772216797000169, 13.851131439000028 ], [ 79.776969910000048, 13.860790252000129 ], [ 79.77462005700005, 13.866680145000089 ], [ 79.776412964000144, 13.87810039500016 ], [ 79.776672363000046, 13.884480477000125 ], [ 79.775390626000103, 13.890289307000046 ], [ 79.778656006000119, 13.898470880000104 ], [ 79.790542603000119, 13.908909797000092 ], [ 79.796020507000037, 13.91148090500019 ], [ 79.800247193000189, 13.912241935000111 ], [ 79.803222657000163, 13.897089958000095 ], [ 79.806350709000185, 13.89245033300017 ], [ 79.813560487000018, 13.887839317000044 ], [ 79.816192628000124, 13.88245964000015 ], [ 79.817939759000183, 13.873010635000014 ], [ 79.821838380000088, 13.870092393000164 ], [ 79.825912476000042, 13.862810134000085 ], [ 79.825119018000123, 13.85522937900015 ], [ 79.826431275000061, 13.849350929000138 ], [ 79.830963135000047, 13.843441964000021 ], [ 79.834907532000159, 13.841500283000187 ], [ 79.841362, 13.846249581000052 ], [ 79.846260071000074, 13.853430747 ], [ 79.850120545000095, 13.857522011000128 ], [ 79.859092713000109, 13.856321335000075 ], [ 79.866088868000134, 13.853190423000058 ], [ 79.871307372999979, 13.842850686000077 ], [ 79.873207092000087, 13.83545971000018 ], [ 79.871177674000194, 13.829410554000049 ], [ 79.869651795000152, 13.819070817000124 ], [ 79.869606018000184, 13.810920715000066 ], [ 79.867637634, 13.792321206000111 ], [ 79.865356446000135, 13.783671378000122 ], [ 79.864746093000122, 13.771380425000018 ], [ 79.861312867000095, 13.763710975000151 ], [ 79.856216431000121, 13.759980203 ], [ 79.851547242000095, 13.75728130400006 ], [ 79.847557067000082, 13.757780075000028 ], [ 79.843749999000181, 13.756850244000134 ], [ 79.841026306000174, 13.754870416000074 ], [ 79.840393067000093, 13.746720314000072 ], [ 79.846511841000108, 13.743371965000051 ], [ 79.849700928000061, 13.736661910000066 ], [ 79.848793030000081, 13.729660035000052 ], [ 79.852783202000012, 13.725131988000157 ], [ 79.855262756, 13.718840600000078 ], [ 79.854393005000077, 13.707821846000172 ], [ 79.856216431000121, 13.701060295000161 ], [ 79.859481811000137, 13.695170403000077 ], [ 79.868560791000107, 13.692819596 ], [ 79.874076843000182, 13.68936061900007 ], [ 79.88162994400011, 13.688471795000055 ], [ 79.894302368000069, 13.688830376000169 ], [ 79.897277832000043, 13.682930947000102 ], [ 79.89789581399998, 13.677181243000064 ], [ 79.895446777000132, 13.668931007000083 ], [ 79.890747071000135, 13.662719728000184 ], [ 79.888359069000103, 13.660677910000175 ], [ 79.886360168000181, 13.655699729000105 ], [ 79.884277343000065, 13.648031235000133 ], [ 79.884399414000086, 13.643541337000045 ], [ 79.887672425000119, 13.634018898000079 ], [ 79.881507873000032, 13.629040717 ], [ 79.868736267000088, 13.620791436000047 ], [ 79.8660507190001, 13.616108894000035 ], [ 79.878089905000195, 13.618041992000087 ], [ 79.899375916000054, 13.624158859000033 ], [ 79.905822753000166, 13.622989654000037 ], [ 79.911979676000044, 13.619301796000059 ], [ 79.922401427000182, 13.618370057000163 ], [ 79.933158874000185, 13.6158199300001 ], [ 79.937156678000065, 13.611569406000115 ], [ 79.936347961000195, 13.608192445000043 ], [ 79.934013366000045, 13.603970528000048 ], [ 79.928909302000136, 13.599379539999973 ], [ 79.917480469000168, 13.595031739000035 ], [ 79.910575868000024, 13.591489793000108 ], [ 79.894783020000034, 13.589331627000035 ], [ 79.885437012000182, 13.592480658999989 ], [ 79.871002198000042, 13.605071069000076 ], [ 79.861877441000104, 13.60689926200007 ], [ 79.851722718000019, 13.605939865000039 ], [ 79.845146179000096, 13.606069566000031 ], [ 79.839576721000071, 13.609301567000159 ], [ 79.83403015100015, 13.607471466 ], [ 79.82361602800006, 13.594710351000117 ], [ 79.819473266000159, 13.587980271000163 ], [ 79.818016053000122, 13.583221435000041 ], [ 79.817382813000108, 13.547241212000074 ], [ 79.819786071000181, 13.537791252000147 ], [ 79.817306518000123, 13.532071113000029 ], [ 79.810531617000095, 13.530139923000092 ], [ 79.804267884000069, 13.524411202000124 ], [ 79.785736083000188, 13.522500992000175 ], [ 79.777740478000055, 13.517830849 ], [ 79.773811339000133, 13.513211250000154 ], [ 79.776069640000173, 13.502321244000086 ], [ 79.774971008000023, 13.483599662000017 ], [ 79.762710571000184, 13.472810746000164 ], [ 79.772369384000058, 13.468271256000094 ], [ 79.773796081000114, 13.464450837000072 ], [ 79.773139953000168, 13.456310273000099 ], [ 79.768737794000174, 13.449688911000067 ], [ 79.762435914000093, 13.446541786000182 ], [ 79.754112244000112, 13.446920396000053 ], [ 79.740608216000112, 13.449780465 ], [ 79.729881286000193, 13.449391366000043 ], [ 79.723358155000199, 13.44734191800012 ], [ 79.718261719000054, 13.443029404000185 ], [ 79.706565858000033, 13.439200401 ], [ 79.703102111000192, 13.435682297000085 ], [ 79.700172424000186, 13.425420761000112 ], [ 79.687690734000057, 13.429987907000168 ], [ 79.682373047000169, 13.430789947000108 ], [ 79.679450988000042, 13.426571847000162 ], [ 79.67547607400013, 13.428001404000042 ], [ 79.670700073000148, 13.433629990000156 ], [ 79.667846679000093, 13.441419601000121 ], [ 79.664077759, 13.448539734000121 ], [ 79.655563355000027, 13.456439972000112 ], [ 79.658828736000146, 13.465090751999981 ], [ 79.66268157900015, 13.472120284000027 ], [ 79.681709289000139, 13.500651361 ], [ 79.660369873000036, 13.500432016000104 ], [ 79.653358460000106, 13.501199722000024 ], [ 79.648490907000166, 13.505278588000181 ], [ 79.64235687200005, 13.512540818000105 ], [ 79.619857788000104, 13.516071319000105 ], [ 79.615798950000169, 13.540141106000078 ], [ 79.616065980000087, 13.557800294000174 ], [ 79.603813171000127, 13.557462693 ], [ 79.591407777000086, 13.558350562000044 ], [ 79.581779481000126, 13.5577611920001 ], [ 79.578689576000158, 13.553840638000111 ], [ 79.571960448000084, 13.554310798000074 ], [ 79.570892333000131, 13.559089662000076 ], [ 79.564041137000061, 13.557958604000078 ], [ 79.554252624000071, 13.559041977000106 ], [ 79.549430847, 13.563059808000105 ], [ 79.547981262000064, 13.574111938000101 ], [ 79.53656005900018, 13.574189187 ], [ 79.533836364000138, 13.576580049000142 ], [ 79.530921935000151, 13.582750321000105 ], [ 79.525337219000107, 13.586261750000119 ] ] ] ] } }
]
}
